$$SOE
2460147.500000000, A.D. 2023-Jul-22 00:00:00.0000, 4.646003701293464E+08, -1.577463730672050E+08, 3.036185828456358E+07,
2460154.500000000, A.D. 2023-Jul-29 00:00:00.0000, 4.680482673439257E+08, -1.489247044016997E+08, 3.288926815962918E+07,
2460161.500000000, A.D. 2023-Aug-05 00:00:00.0000, 4.713056750688664E+08, -1.400423253167986E+08, 3.540328368333896E+07,
2460168.500000000, A.D. 2023-Aug-12 00:00:00.0000, 4.743720506244267E+08, -1.311030836704649E+08, 3.790294009354462E+07,
2460175.500000000, A.D. 2023-Aug-19 00:00:00.0000, 4.772469275596132E+08, -1.221108177698440E+08, 4.038728579699595E+07,
2460182.500000000, A.D. 2023-Aug-26 00:00:00.0000, 4.799299145477586E+08, -1.130693551068874E+08, 4.285538248799464E+07,
2460189.500000000, A.D. 2023-Sep-02 00:00:00.0000, 4.824206942603709E+08, -1.039825112162289E+08, 4.530630525170179E+07,
2460196.500000000, A.D. 2023-Sep-09 00:00:00.0000, 4.847190222558707E+08, -9.485408869504869E+07, 4.773914264554866E+07,
2460203.500000000, A.D. 2023-Sep-16 00:00:00.0000, 4.868247260516294E+08, -8.568787644081926E+07, 5.015299673861596E+07,
2460210.500000000, A.D. 2023-Sep-23 00:00:00.0000, 4.887377047960740E+08, -7.648764881732886E+07, 5.254698309429589E+07,
2460217.500000000, A.D. 2023-Sep-30 00:00:00.0000, 4.904579292031435E+08, -6.725716355494599E+07, 5.492023082521930E+07,
2460224.500000000, A.D. 2023-Oct-07 00:00:00.0000, 4.919854393994232E+08, -5.800015892592508E+07, 5.727188289325939E+07,
2460231.500000000, A.D. 2023-Oct-14 00:00:00.0000, 4.933203417271388E+08, -4.872035350799072E+07, 5.960109628966928E+07,
2460238.500000000, A.D. 2023-Oct-21 00:00:00.0000, 4.944628077322887E+08, -3.942144693309247E+07, 6.190704193079211E+07,
2460245.500000000, A.D. 2023-Oct-28 00:00:00.0000, 4.954130739141772E+08, -3.010711935986001E+07, 6.418890458536653E+07,
2460252.500000000, A.D. 2023-Nov-04 00:00:00.0000, 4.961714409874490E+08, -2.078103043895968E+07, 6.644588288596289E+07,
2460259.500000000, A.D. 2023-Nov-11 00:00:00.0000, 4.967382728350533E+08, -1.144681837017119E+07, 6.867718936000669E+07,
2460266.500000000, A.D. 2023-Nov-18 00:00:00.0000, 4.971139953722005E+08, -2.108099114316963E+06, 7.088205045567143E+07,
2460273.500000000, A.D. 2023-Nov-25 00:00:00.0000, 4.972990953946053E+08, 7.231534263819765E+06, 7.305970655841440E+07,
2460280.500000000, A.D. 2023-Dec-02 00:00:00.0000, 4.972941194396883E+08, 1.656851211174221E+07, 7.520941199522482E+07,
2460287.500000000, A.D. 2023-Dec-09 00:00:00.0000, 4.970996727391068E+08, 2.589928850699090E+07, 7.733043501513703E+07,
2460294.500000000, A.D. 2023-Dec-16 00:00:00.0000, 4.967164185504225E+08, 3.522034138995731E+07, 7.942205772096838E+07,
2460301.500000000, A.D. 2023-Dec-23 00:00:00.0000, 4.961450782158402E+08, 4.452817320036837E+07, 8.148357597645304E+07,
2460308.500000000, A.D. 2023-Dec-30 00:00:00.0000, 4.953864306074876E+08, 5.381931306889267E+07, 8.351429949752811E+07,
2460315.500000000, A.D. 2024-Jan-06 00:00:00.0000, 4.944413091884826E+08, 6.309031820507403E+07, 8.551355209813543E+07,
2460322.500000000, A.D. 2024-Jan-13 00:00:00.0000, 4.933105998637035E+08, 7.233777267497873E+07, 8.748067165214339E+07,
2460329.500000000, A.D. 2024-Jan-20 00:00:00.0000, 4.919952408430008E+08, 8.155828665388773E+07, 8.941500991086431E+07,
2460336.500000000, A.D. 2024-Jan-27 00:00:00.0000, 4.904962224877481E+08, 9.074849680782649E+07, 9.131593241544032E+07,
2460343.500000000, A.D. 2024-Feb-03 00:00:00.0000, 4.888145867126797E+08, 9.990506685674727E+07, 9.318281846600063E+07,
2460350.500000000, A.D. 2024-Feb-10 00:00:00.0000, 4.869514262206751E+08, 1.090246880294487E+08, 9.501506109848660E+07,
2460357.500000000, A.D. 2024-Feb-17 00:00:00.0000, 4.849078837093610E+08, 1.181040794193109E+08, 9.681206705719285E+07,
2460364.500000000, A.D. 2024-Feb-24 00:00:00.0000, 4.826851510855826E+08, 1.271399882568061E+08, 9.857325676108520E+07,
2460371.500000000, A.D. 2024-Mar-02 00:00:00.0000, 4.802844687172489E+08, 1.361291900674520E+08, 1.002980642587640E+08,
2460378.500000000, A.D. 2024-Mar-09 00:00:00.0000, 4.777071248616372E+08, 1.450684886534316E+08, 1.019859371544817E+08,
2460385.500000000, A.D. 2024-Mar-16 00:00:00.0000, 4.749544556655678E+08, 1.539547160968545E+08, 1.036363364852453E+08,
2460392.500000000, A.D. 2024-Mar-23 00:00:00.0000, 4.720278456330562E+08, 1.627847338943739E+08, 1.052487366489655E+08,
2460399.500000000, A.D. 2024-Mar-30 00:00:00.0000, 4.689287263185000E+08, 1.715554351982405E+08, 1.068226255871922E+08,
2460406.500000000, A.D. 2024-Apr-06 00:00:00.0000, 4.656585735028395E+08, 1.802637447980725E+08, 1.083575049247852E+08,
2460413.500000000, A.D. 2024-Apr-13 00:00:00.0000, 4.622189064047993E+08, 1.889066176798521E+08, 1.098528898096053E+08,
2460420.500000000, A.D. 2024-Apr-20 00:00:00.0000, 4.586112879742502E+08, 1.974810388389611E+08, 1.113083087581361E+08,
2460427.500000000, A.D. 2024-Apr-27 00:00:00.0000, 4.548373247500675E+08, 2.059840237865717E+08, 1.127233036003633E+08,
2460434.500000000, A.D. 2024-May-04 00:00:00.0000, 4.508986663699993E+08, 2.144126190465783E+08, 1.140974294584307E+08,
2460441.500000000, A.D. 2024-May-11 00:00:00.0000, 4.467970049700987E+08, 2.227639025418738E+08, 1.154302547287534E+08,
2460448.500000000, A.D. 2024-May-18 00:00:00.0000, 4.425340745545933E+08, 2.310349838926314E+08, 1.167213610616668E+08,
2460455.500000000, A.D. 2024-May-25 00:00:00.0000, 4.381116503599247E+08, 2.392230046211412E+08, 1.179703433358532E+08,
2460462.500000000, A.D. 2024-Jun-01 00:00:00.0000, 4.335315482724199E+08, 2.473251382078501E+08, 1.191768096179113E+08,
2460469.500000000, A.D. 2024-Jun-08 00:00:00.0000, 4.287956245463783E+08, 2.553385899775841E+08, 1.203403810835482E+08,
2460476.500000000, A.D. 2024-Jun-15 00:00:00.0000, 4.239057762228192E+08, 2.632605973620558E+08, 1.214606919091519E+08,
2460483.500000000, A.D. 2024-Jun-22 00:00:00.0000, 4.188639412432488E+08, 2.710884317140249E+08, 1.225373893222055E+08,
2460490.500000000, A.D. 2024-Jun-29 00:00:00.0000, 4.136720961358894E+08, 2.788193998536199E+08, 1.235701338567740E+08,
2460497.500000000, A.D. 2024-Jul-06 00:00:00.0000, 4.083322539203429E+08, 2.864508428772631E+08, 1.245585993706051E+08,
2460504.500000000, A.D. 2024-Jul-13 00:00:00.0000, 4.028464641802918E+08, 2.939801350531155E+08, 1.255024728759954E+08,
2460511.500000000, A.D. 2024-Jul-20 00:00:00.0000, 3.972168133173191E+08, 3.014046839517175E+08, 1.264014544600415E+08,
2460518.500000000, A.D. 2024-Jul-27 00:00:00.0000, 3.914454243288542E+08, 3.087219308530983E+08, 1.272552572759467E+08,
2460525.500000000, A.D. 2024-Aug-03 00:00:00.0000, 3.855344563825930E+08, 3.159293510562679E+08, 1.280636075497144E+08,
2460532.500000000, A.D. 2024-Aug-10 00:00:00.0000, 3.794861043526563E+08, 3.230244540874911E+08, 1.288262445865813E+08,
2460539.500000000, A.D. 2024-Aug-17 00:00:00.0000, 3.733025983642728E+08, 3.300047838300076E+08, 1.295429207744965E+08,
2460546.500000000, A.D. 2024-Aug-24 00:00:00.0000, 3.669862033742831E+08, 3.368679185539562E+08, 1.302134015801116E+08,
2460553.500000000, A.D. 2024-Aug-31 00:00:00.0000, 3.605392189025998E+08, 3.436114707861449E+08, 1.308374655215416E+08,
2460560.500000000, A.D. 2024-Sep-07 00:00:00.0000, 3.539639792799094E+08, 3.502330871471641E+08, 1.314149040946742E+08,
2460567.500000000, A.D. 2024-Sep-14 00:00:00.0000, 3.472628544967664E+08, 3.567304491522436E+08, 1.319455217263782E+08,
2460574.500000000, A.D. 2024-Sep-21 00:00:00.0000, 3.404382496239864E+08, 3.631012753882844E+08, 1.324291359736682E+08,
2460581.500000000, A.D. 2024-Sep-28 00:00:00.0000, 3.334926023152189E+08, 3.693433218407962E+08, 1.328655777497090E+08,
2460588.500000000, A.D. 2024-Oct-05 00:00:00.0000, 3.264283820620311E+08, 3.754543803743033E+08, 1.332546912409979E+08,
2460595.500000000, A.D. 2024-Oct-12 00:00:00.0000, 3.192480908411737E+08, 3.814322783463761E+08, 1.335963337922529E+08,
2460602.500000000, A.D. 2024-Oct-19 00:00:00.0000, 3.119542634021336E+08, 3.872748790844795E+08, 1.338903758971251E+08,
2460609.500000000, A.D. 2024-Oct-26 00:00:00.0000, 3.045494671618416E+08, 3.929800824248408E+08, 1.341367012321874E+08,
2460616.500000000, A.D. 2024-Nov-02 00:00:00.0000, 2.970363019634212E+08, 3.985458251655911E+08, 1.343352066985285E+08,
2460623.500000000, A.D. 2024-Nov-09 00:00:00.0000, 2.894173997951421E+08, 4.039700814554276E+08, 1.344858024637718E+08,
2460630.500000000, A.D. 2024-Nov-16 00:00:00.0000, 2.816954244949179E+08, 4.092508631185704E+08, 1.345884120021017E+08,
2460637.500000000, A.D. 2024-Nov-23 00:00:00.0000, 2.738730714865559E+08, 4.143862198666942E+08, 1.346429721238615E+08,
2460644.500000000, A.D. 2024-Nov-30 00:00:00.0000, 2.659530677552629E+08, 4.193742393560110E+08, 1.346494329722127E+08,
2460651.500000000, A.D. 2024-Dec-07 00:00:00.0000, 2.579381724813644E+08, 4.242130475112264E+08, 1.346077579830852E+08,
2460658.500000000, A.D. 2024-Dec-14 00:00:00.0000, 2.498311776435309E+08, 4.289008103408868E+08, 1.345179239718045E+08,
2460665.500000000, A.D. 2024-Dec-21 00:00:00.0000, 2.416349062717945E+08, 4.334357360029078E+08, 1.343799214573584E+08,
2460672.500000000, A.D. 2024-Dec-28 00:00:00.0000, 2.333522103213666E+08, 4.378160741541345E+08, 1.341937548014203E+08,
2460679.500000000, A.D. 2025-Jan-04 00:00:00.0000, 2.249859707652664E+08, 4.420401149616290E+08, 1.339594421190940E+08,
2460686.500000000, A.D. 2025-Jan-11 00:00:00.0000, 2.165390980848494E+08, 4.461061894347640E+08, 1.336770152638630E+08,
2460693.500000000, A.D. 2025-Jan-18 00:00:00.0000, 2.080145322401557E+08, 4.500126701582778E+08, 1.333465198952171E+08,
2460700.500000000, A.D. 2025-Jan-25 00:00:00.0000, 1.994152423620443E+08, 4.537579719514199E+08, 1.329680155676029E+08,
2460707.500000000, A.D. 2025-Feb-01 00:00:00.0000, 1.907442263541327E+08, 4.573405524233667E+08, 1.325415758210072E+08,
2460714.500000000, A.D. 2025-Feb-08 00:00:00.0000, 1.820045104617939E+08, 4.607589124453544E+08, 1.320672882699085E+08,
2460721.500000000, A.D. 2025-Feb-15 00:00:00.0000, 1.731991488363522E+08, 4.640115965204316E+08, 1.315452546869524E+08,
$$EOE